{
  "norad_id": 58410,
  "name": "STARLINK-30933",
  "history": [
    {
      "epoch": "2026-03-28T14:40:23.588832",
      "apogee_km": 484.2359008981084,
      "perigee_km": 481.79470290909103,
      "latitude_deg": 37.262763583122286,
      "longitude_deg": 79.69287647982128,
      "semi_major_axis_km": 6861.152301903599,
      "eccentricity": 0.0001779,
      "inclination_deg": 43.0004,
      "raan_deg": 159.8838,
      "arg_perigee_deg": 273.1514,
      "mean_anomaly_deg": 86.9134,
      "mean_motion_rev_day": 15.27591286
    }
  ]
}